*******************************************************************************
JPL/HORIZONS               469 Argentina (A901 DC)         2023-Sep-04 11:06:31
Rec #:     469 (+COV) Soln.date: 2023-Aug-23_20:32:08   # obs: 4129 (1901-2023)
 
IAU76/J2000 helio. ecliptic osc. elements (au, days, deg., period=Julian yrs):
 
  EPOCH=  2456845.5 ! 2014-Jul-07.00 (TDB)         Residual RMS= .27287
   EC= .1589917548292016   QR= 2.67356986383378    TP= 2456718.1114747878
   OM= 333.481321752791    W=  209.3588789567727   IN= 11.59636364424455
   A= 3.179005531974078    MA= 22.1512101958405    ADIST= 3.684441200114376
   PER= 5.6682             N= .173887013           ANGMOM= .030280803
   DAN= 3.5971             DDN= 2.72152            L= 182.3380016
   B= -5.6558906           MOID= 1.68444002        TP= 2014-Mar-01.6114747878
 
Asteroid physical parameters (km, seconds, rotational period in hours):
   GM= n.a.                RAD= 66.859             ROTPER= 17.5727
   H= 8.73                 G= .150                 B-V= .655
                           ALBEDO= .035            STYP= X

ASTEROID comments: 
1: soln ref.= JPL#62, OCC=0
2: source=ORB
*******************************************************************************


*******************************************************************************
Ephemeris / API_USER Mon Sep  4 11:06:31 2023 Pasadena, USA      / Horizons
*******************************************************************************
Target body name: 469 Argentina (A901 DC)         {source: JPL#62}
Center body name: Solar System Barycenter (0)     {source: DE441}
Center-site name: BODY CENTER
*******************************************************************************
Start time      : A.D. 2023-Aug-12 00:00:00.0000 TDB
Stop  time      : A.D. 2023-Aug-13 00:00:00.0000 TDB
Step-size       : 2880 minutes
*******************************************************************************
Center geodetic : 0.0, 0.0, 0.0                   {E-lon(deg),Lat(deg),Alt(km)}
Center cylindric: 0.0, 0.0, 0.0                   {E-lon(deg),Dxy(km),Dz(km)}
Center radii    : (undefined)
Small perturbers: Yes                             {source: SB441-N16}
Output units    : KM-S
Calendar mode   : Mixed Julian/Gregorian
Output type     : GEOMETRIC cartesian states
Output format   : 2 (position and velocity)
Reference frame : Ecliptic of J2000.0
*******************************************************************************
Initial IAU76/J2000 heliocentric ecliptic osculating elements (au, days, deg.):
  EPOCH=  2456845.5 ! 2014-Jul-07.00 (TDB)         Residual RMS= .27287        
   EC= .1589917548292016   QR= 2.67356986383378    TP= 2456718.1114747878      
   OM= 333.481321752791    W=  209.3588789567727   IN= 11.59636364424455       
  Equivalent ICRF heliocentric cartesian coordinates (au, au/d):
   X=-2.254766414086448E+00  Y=-1.147107623997431E+00  Z=-1.013830944300162E+00
  VX= 5.508154853879391E-03 VY=-8.306875158041674E-03 VZ=-4.972525377334429E-03
Asteroid physical parameters (km, seconds, rotational period in hours):        
   GM= n.a.                RAD= 66.859             ROTPER= 17.5727             
   H= 8.73                 G= .150                 B-V= .655                   
                           ALBEDO= .035            STYP= X                     
*******************************************************************************
JDTDB
   X     Y     Z
   VX    VY    VZ
*******************************************************************************
$$SOE
2460168.500000000 = A.D. 2023-Aug-12 00:00:00.0000 TDB 
 X = 3.506469417716154E+08 Y = 3.818750045688850E+08 Z = 1.014302510637864E+08
 VX=-1.215694486257459E+01 VY= 8.639432177285601E+00 VZ= 4.356516989511241E-01
$$EOE
*******************************************************************************
 
TIME

  Barycentric Dynamical Time ("TDB" or T_eph) output was requested. This
continuous coordinate time is equivalent to the relativistic proper time
of a clock at rest in a reference frame co-moving with the solar system
barycenter but outside the system's gravity well. It is the independent
variable in the solar system relativistic equations of motion.

  TDB runs at a uniform rate of one SI second per second and is independent
of irregularities in Earth's rotation.
 
CALENDAR SYSTEM

  Mixed calendar mode was active such that calendar dates after AD 1582-Oct-15
(if any) are in the modern Gregorian system. Dates prior to 1582-Oct-5 (if any)
are in the Julian calendar system, which is automatically extended for dates
prior to its adoption on 45-Jan-1 BC.  The Julian calendar is useful for
matching historical dates. The Gregorian calendar more accurately corresponds
to the Earth's orbital motion and seasons. A "Gregorian-only" calendar mode is
available if such physical events are the primary interest.

REFERENCE FRAME AND COORDINATES

  Ecliptic at the standard reference epoch

    Reference epoch: J2000.0
    X-Y plane: adopted Earth orbital plane at the reference epoch
               Note: IAU76 obliquity of 84381.448 arcseconds wrt ICRF X-Y plane
    X-axis   : ICRF
    Z-axis   : perpendicular to the X-Y plane in the directional (+ or -) sense
               of Earth's north pole at the reference epoch.

  Symbol meaning:

    JDTDB    Julian Day Number, Barycentric Dynamical Time
      X      X-component of position vector (km)
      Y      Y-component of position vector (km)
      Z      Z-component of position vector (km)
      VX     X-component of velocity vector (km/sec)                           
      VY     Y-component of velocity vector (km/sec)                           
      VZ     Z-component of velocity vector (km/sec)                           

ABERRATIONS AND CORRECTIONS

 Geometric state vectors have NO corrections or aberrations applied.

Computations by ...

    Solar System Dynamics Group, Horizons On-Line Ephemeris System
    4800 Oak Grove Drive, Jet Propulsion Laboratory
    Pasadena, CA  91109   USA

    General site: https://ssd.jpl.nasa.gov/
    Mailing list: https://ssd.jpl.nasa.gov/email_list.html
    System news : https://ssd.jpl.nasa.gov/horizons/news.html
    User Guide  : https://ssd.jpl.nasa.gov/horizons/manual.html
    Connect     : browser        https://ssd.jpl.nasa.gov/horizons/app.html#/x
                  API            https://ssd-api.jpl.nasa.gov/doc/horizons.html
                  command-line   telnet ssd.jpl.nasa.gov 6775
                  e-mail/batch   https://ssd.jpl.nasa.gov/ftp/ssd/hrzn_batch.txt
                  scripts        https://ssd.jpl.nasa.gov/ftp/ssd/SCRIPTS
    Author      : Jon.D.Giorgini@jpl.nasa.gov
*******************************************************************************
